183P/Korlevic-Juric,e,18.6813,5.2424,164.1887,4.521164,0.1025247,0.13950276,99.8657,07/29.0/2020,2000,g 12.5,2.0
# From MPEC 2020-N31
184P/Lovas,e,4.5726,173.2569,186.4286,3.794263,0.1333561,0.55108842,348.1071,07/29.0/2020,2000,g 13.5,4.0
# From MPC109593
185P/Petriew,e,13.9990,214.0956,181.8820,3.099429,0.1806265,0.69894334,165.0061,07/29.0/2020,2000,g 15.0,4.0
# From MPEC 2020-N31
186P/Garradd,e,28.5528,326.7593,283.8348,5.010549,0.0878772,0.12427263,39.8126,07/29.0/2020,2000,g  7.5,4.0
# From MPC104795
187P/LINEAR,e,13.6347,109.9235,132.1714,4.573234,0.1007787,0.15235773,80.9310,07/29.0/2020,2000,g  9.0,4.0
# From MPC106349
188P/LINEAR-Mueller,e,10.5205,358.9565,26.5833,4.375967,0.1076696,0.41528827,135.4526,07/29.0/2020,2000,g 11.5,4.0
# From MPC106349
189P/NEAT,e,20.0738,281.7407,16.2573,2.947184,0.1948019,0.58874170,211.8192,07/29.0/2020,2000,g 19.0,4.0
# From MPEC 2020-N31
190P/Mueller,e,2.1742,335.5742,50.2808,4.235596,0.1130661,0.52085461,177.9134,07/29.0/2020,2000,g 13.0,4.0
# From MPEC 2020-N31
191P/McNaught,e,8.8433,98.2383,283.9426,3.637744,0.1420548,0.38632432,326.7703,07/29.0/2020,2000,g 13.0,4.0
# From MPC 75724
192P/Shoemaker-Levy,e,24.5374,51.6405,312.9120,6.478456,0.0597719,0.77285382,276.5643,07/29.0/2020,2000,g 15.0,4.0
# From MPC 92277
193P/LINEAR-NEAT,e,10.6868,335.1902,8.2442,3.576045,0.1457470,0.39407688,302.7661,07/29.0/2020,2000,g 14.0,4.0
# From MPC 98566
194P/LINEAR,e,11.1917,351.5329,130.8028,3.985520,0.1238730,0.57819272,199.4355,07/29.0/2020,2000,g 16.0,4.0
# From MPC 75724
195P/Hill,e,36.3402,243.1029,249.4473,6.499162,0.0594865,0.31323335,251.3278,07/29.0/2020,2000,g  8.5,4.0
# From MPC 92985
196P/Tichy,e,19.2998,24.2018,12.3035,3.798238,0.1331468,0.42860496,250.3921,07/29.0/2020,2000,g 13.5,4.0
# From MPC 94676
197P/LINEAR,e,25.5467,66.3936,188.7382,2.867354,0.2029935,0.62986990,185.1472,07/29.0/2020,2000,g 16.5,2.0
# From NK 1596
198P/ODAS,e,1.3386,358.2509,69.2471,3.600226,0.1442811,0.44313913,85.5917,07/29.0/2020,2000,g  9.0,4.0
# From MPC 75725
199P/Shoemaker,e,24.9350,92.3978,191.5888,5.897568,0.0688168,0.50609288,283.9869,07/29.0/2020,2000,g 10.0,4.0
# From MPC118098
200P/Larsen,e,12.1037,234.8029,134.0159,4.937981,0.0898214,0.33224957,32.8970,07/29.0/2020,2000,g  9.0,4.0
# From MPC 93588
201P/LONEOS,e,5.7366,19.8263,41.4116,3.358309,0.1601486,0.63741908,311.7072,07/29.0/2020,2000,g 14.0,4.0
# From MPC103849
202P/Scotti,e,2.0331,181.1118,275.8076,4.001183,0.1231463,0.28242426,189.8717,07/29.0/2020,2000,g 13.5,4.0
# From MPEC 2019-TG9
203P/Korlevic,e,2.9733,290.3487,154.8567,4.671183,0.0976256,0.31501411,14.2592,07/29.0/2020,2000,g 14.5,2.0
# From MPC 98566
204P/LINEAR-NEAT,e,6.6385,108.8410,355.0201,3.624712,0.1428216,0.48301824,239.8102,07/29.0/2020,2000,g 14.0,4.0
# From MPC 98566
205P/Giacobini,e,15.3022,179.6005,154.1904,3.542777,0.1478047,0.56787748,281.1496,07/29.0/2020,2000,g 13.0,4.0
# From MPC 75725
206P/Barnard-Boattini,e,33.6305,202.3590,189.4438,3.488520,0.1512663,0.55143398,326.9535,07/29.0/2020,2000,g 19.0,4.0
# From MPC 75725
207P/NEAT,e,10.1530,199.3888,272.1384,3.865080,0.1297079,0.76020282,193.4539,07/29.0/2020,2000,g 16.0,4.0
# From MPC101100
208P/McMillan,e,4.4092,36.3628,310.3953,4.046999,0.1210610,0.37338166,180.0364,07/29.0/2020,2000,g 12.5,4.0
# From MPC 90771
209P/LINEAR,e,21.2580,62.7675,152.4845,2.960358,0.1935030,0.67320857,79.7697,07/29.0/2020,2000,g 17.0,2.0
# From MPC105242
210P/Christensen,e,10.2619,93.8352,345.9065,3.165534,0.1749982,0.83321281,19.6133,07/29.0/2020,2000,g 13.5,4.0
# From MPC 96868
211P/Hill,e,18.9219,117.1394,4.1419,3.548498,0.1474474,0.34262249,242.3510,07/29.0/2020,2000,g 12.5,4.0
# From MPC104795
212P/NEAT,e,22.5616,98.6429,14.1814,3.880370,0.1289420,0.58961167,183.1514,07/29.0/2020,2000,g 17.0,2.0
# From MPC114608
213P/Van Ness,e,10.3827,311.3000,5.6071,3.348187,0.1608753,0.40812684,166.9798,07/29.0/2020,2000,g 10.5,4.0
# From MPC 92986
214P/LINEAR,e,15.1853,348.2595,190.2808,3.616196,0.1433264,0.48593476,246.8611,07/29.0/2020,2000,g 13.0,4.0
# From MPC118098
215P/NEAT,e,10.5815,56.6834,262.0837,4.327823,0.1094712,0.16703205,27.7714,07/29.0/2020,2000,g 11.0,4.0
# From MPC100284
216P/LINEAR,e,9.0518,359.8182,151.3642,3.870031,0.1294590,0.44559865,196.9593,07/29.0/2020,2000,g 13.0,4.0
# From MPC108598
217P/LINEAR,e,12.8644,125.4784,246.8447,3.951638,0.1254696,0.68832020,139.0331,07/29.0/2020,2000,g 12.0,4.0
# From MPEC 2020-N31
218P/LINEAR,e,2.7255,175.9757,59.7850,3.093861,0.1811144,0.62186126,347.9058,07/29.0/2020,2000,g 16.0,4.0
# From MPC100284
219P/LINEAR,e,11.5294,230.9950,107.3642,3.650800,0.1412935,0.35360574,177.1073,07/29.0/2020,2000,g 11.0,4.0
# From MPEC 2020-N31
220P/McNaught,e,8.1280,150.1066,180.5444,3.116268,0.1791645,0.50189106,335.8748,07/29.0/2020,2000,g 15.0,4.0
# From MPC 93589
221P/LINEAR,e,11.4260,229.7200,40.0510,3.457582,0.1533011,0.49283171,282.2839,07/29.0/2020,2000,g 14.5,4.0
# From MPC 92277
222P/LINEAR,e,5.0952,6.7939,346.2296,2.899367,0.1996408,0.71443175,83.8279,07/29.0/2020,2000,g 20.0,4.0
# From MPEC 2020-HN5
223P/Skiff,e,27.0177,346.7742,37.8193,4.159131,0.1161984,0.41570856,63.7589,07/29.0/2020,2000,g 12.0,4.0
# From MPC 75727
224P/LINEAR-NEAT,e,13.3199,40.3374,16.7868,3.438024,0.1546111,0.40833821,237.4165,07/29.0/2020,2000,g 15.5,4.0
# From MPC 75727
225P/LINEAR,e,21.3506,14.1844,3.8662,3.650968,0.1412837,0.63767379,203.7938,07/29.0/2020,2000,g 18.0,4.0
# From MPC106349
226P/Pigott-LINEAR-Kowalski,e,44.0089,54.0043,341.0497,3.767847,0.1347610,0.52821587,191.9345,07/29.0/2020,2000,g 12.5,4.0
# From MPC102956
227P/Catalina-LINEAR,e,6.5081,49.3690,90.1690,3.569174,0.1461681,0.50614155,165.3004,07/29.0/2020,2000,g 16.5,2.0
# From MPEC 2020-L06
228P/LINEAR,e,7.9101,30.9837,115.2797,4.173235,0.1156098,0.17670782,16.2401,07/29.0/2020,2000,g 14.5,2.0
# From MPC106349
229P/Gibbs,e,26.0866,157.9003,223.9759,3.931232,0.1264477,0.37657510,147.3466,07/29.0/2020,2000,g 13.0,4.0
# From MPC110497
230P/LINEAR,e,15.5149,107.0213,313.6295,3.449118,0.1538658,0.54836302,268.0955,07/29.0/2020,2000,g 13.0,4.0
# From MPEC 2020-N31
231P/LINEAR-NEAT,e,12.3345,133.0225,42.9093,4.019075,0.1223249,0.24766316,50.1601,07/29.0/2020,2000,g 14.5,2.0
# From MPC112394
232P/Hill,e,14.6313,56.0201,53.4769,4.482112,0.1038676,0.33425609,49.8371,07/29.0/2020,2000,g 11.5,4.0
# From MPC 92986
233P/La Sagra,e,11.2839,74.9273,27.0611,3.030635,0.1868115,0.41178703,347.9174,07/29.0/2020,2000,g 15.0,4.0
# From MPC110497
234P/LINEAR,e,11.5250,179.5671,357.3685,3.802764,0.1329092,0.25413335,153.7352,07/29.0/2020,2000,g 12.0,4.0
# From MPC110497
235P/LINEAR,e,8.8899,203.8475,333.4943,3.981423,0.1240642,0.31985927,107.3652,07/29.0/2020,2000,g 12.0,4.0
# From MPC107688
236P/LINEAR,e,16.3340,245.6515,119.1992,3.731118,0.1367558,0.50850550,134.2275,07/29.0/2020,2000,g 14.0,4.0
# From MPC109593
237P/LINEAR,e,14.0204,245.4137,25.1796,3.512409,0.1497257,0.43471785,207.4188,07/29.0/2020,2000,g 14.5,2.0
# From MPC107688
238P/Read,e,1.2645,51.6431,324.6849,3.163524,0.1751650,0.25232639,241.2450,07/29.0/2020,2000,g 14.5,4.0
# From MPC112394
239P/LINEAR,e,11.3017,255.9141,220.4416,4.471373,0.1042420,0.63057100,58.9980,07/29.0/2020,2000,g 17.5,2.0
# From MPC109593
240P/NEAT,e,23.5055,74.9220,351.9990,3.868120,0.1295550,0.44871672,104.3501,07/29.0/2020,2000,g 11.0,4.0
# From MPC 75729
241P/LINEAR,e,21.1044,305.4824,111.3068,4.927793,0.0901001,0.61053622,327.4265,07/29.0/2020,2000,g 13.5,4.0
# From MPC 81861
242P/Spahr,e,32.4816,180.4740,246.2137,5.477990,0.0768727,0.27792297,235.4144,07/29.0/2020,2000,g  8.0,4.0
# From MPC111774
243P/NEAT,e,7.6412,87.6548,283.5205,3.831501,0.1314167,0.35979994,92.3728,07/29.0/2020,2000,g 12.5,4.0
# From MPC 88331
244P/Scotti,e,2.2591,353.9902,92.8688,4.895486,0.0909935,0.19839135,283.5651,07/29.0/2020,2000,g  9.0,4.0
# From MPC111774
245P/WISE,e,21.1972,316.6501,316.8229,4.042687,0.1212548,0.45760435,109.2709,07/29.0/2020,2000,g 14.0,4.0
# From MPEC 2020-N31
246P/NEAT,e,15.9873,78.7476,176.2729,4.015563,0.1224854,0.28676550,334.4367,07/29.0/2020,2000,g 10.5,4.0
# From MPC112394
247P/LINEAR,e,13.6556,54.0117,47.4869,3.970310,0.1245855,0.62448422,75.3870,07/29.0/2020,2000,g 16.5,2.0
# From MPC 75730
248P/Gibbs,e,6.3468,207.7503,209.9086,5.990859,0.0672157,0.63789105,233.8604,07/29.0/2020,2000,g 14.0,4.0
# From MPEC 2020-N31
249P/LINEAR,e,8.3969,239.1763,65.6056,2.761989,0.2147193,0.82014628,6.3348,07/29.0/2020,2000,g 15.5,4.0
# From MPC110497
250P/Larson,e,13.2325,73.6502,45.9314,3.753673,0.1355250,0.40394549,123.0518,07/29.0/2020,2000,g 14.5,4.0
# From MPC104795
251P/LINEAR,e,23.4046,219.3997,31.2636,3.509866,0.1498885,0.50549302,166.1427,07/29.0/2020,2000,g 16.5,2.0
# From MPC102956
252P/LINEAR,e,10.4104,190.9526,343.3144,3.049498,0.1850809,0.67200379,295.7869,07/29.0/2020,2000,g 17.5,4.0
# From MPC112394
253P/PANSTARRS,e,4.9426,146.8767,230.6428,3.467851,0.1526207,0.41344137,124.1076,07/29.0/2020,2000,g 14.5,4.0
# From MPC 81473
254P/McNaught,e,32.5715,129.1733,219.4710,4.615201,0.0994073,0.32029202,353.7765,07/29.0/2020,2000,g 11.0,4.0
# From NK 2214
255P/Levy,e,14.2907,276.9943,184.9705,2.930235,0.1964945,0.72218718,210.0330,07/29.0/2020,2000,g  9.0,4.0
# From MPC 84027
256P/LINEAR,e,27.6356,81.3506,124.3061,4.636227,0.0987318,0.41838012,265.5826,07/29.0/2020,2000,g 14.0,2.0
# From MPEC 2020-N31
257P/Catalina,e,20.2212,207.7434,117.6451,3.764190,0.1349574,0.43083196,354.0964,07/29.0/2020,2000,g 11.5,4.0
# From MPC 79655
258P/PANSTARRS,e,6.7460,126.2481,26.1064,4.401546,0.1067324,0.20902061,4.2107,07/29.0/2020,2000,g 13.0,4.0
# From MPC106349
259P/Garradd,e,15.8881,51.4610,257.5759,2.730909,0.2183953,0.33846397,237.8436,07/29.0/2020,2000,g 15.5,4.0
# From MPEC 2020-L06
260P/McNaught,e,15.0531,349.3459,18.4005,3.622272,0.1429659,0.60892766,46.1802,07/29.0/2020,2000,g 13.5,4.0
# From MPEC 2019-TG9
261P/Larson,e,6.0762,291.1620,67.1291,3.489539,0.1512001,0.42304020,61.4252,07/29.0/2020,2000,g 14.0,4.0
# From MPC 82322
